

*******************************************************************************
Ephemeris / WWW_USER Tue May 30 06:48:07 2023 Pasadena, USA      / Horizons    
*******************************************************************************
Target body name: Neptune (899)                   {source: nep102_merged}
Center body name: Earth (399)                     {source: DE441}
Center-site name: GEOCENTRIC
*******************************************************************************
Start time      : A.D. 1980-Jan-01 00:00:00.0000 UT      
Stop  time      : A.D. 2023-Jan-01 00:00:00.0000 UT      
Step-size       : 1440 minutes
*******************************************************************************
Target pole/equ : IAU_NEPTUNE                     {West-longitude positive}
Target radii    : 24764.0, 24764.0, 24341.0 km    {Equator_a, b, pole_c}       
Center geodetic : 0.0, 0.0, -6378.137             {E-lon(deg),Lat(deg),Alt(km)}
Center cylindric: 0.0, 0.0, 0.0                   {E-lon(deg),Dxy(km),Dz(km)}
Center pole/equ : ITRF93                          {East-longitude positive}
Center radii    : 6378.137, 6378.137, 6356.752 km {Equator_a, b, pole_c}       
Target primary  : Sun
Vis. interferer : MOON (R_eq= 1737.400) km        {source: DE441}
Rel. light bend : Sun                             {source: DE441}
Rel. lght bnd GM: 1.3271E+11 km^3/s^2                                          
Atmos refraction: NO (AIRLESS)
RA format       : DEG
Time format     : CAL 
Calendar mode   : Gregorian
EOP file        : eop.230528.p230821                                           
EOP coverage    : DATA-BASED 1962-JAN-20 TO 2023-MAY-28. PREDICTS-> 2023-AUG-20
Units conversion: 1 au= 149597870.700 km, c= 299792.458 km/s, 1 day= 86400.0 s 
Table cut-offs 1: Elevation (-90.0deg=NO ),Airmass (>38.000=NO), Daylight (NO )
Table cut-offs 2: Solar elongation (  0.0,180.0=NO ),Local Hour Angle( 0.0=NO )
Table cut-offs 3: RA/DEC angular rate (     0.0=NO )                           
Table format    : Comma Separated Values (spreadsheet)
*******************************************************************************
 Date__(UT)__HR:MN, , , R.A._(ICRF), DEC_(ICRF),             delta,     deldot,
*******************************************************************************
$$SOE
 2000-Oct-06 00:00, , ,   306.07635,  -19.11194,  29.7419069483586, 27.8060323,
 2000-Oct-07 00:00, , ,   306.07135,  -19.11338,  29.7580171954574, 27.9809248,
 2000-Oct-08 00:00, , ,   306.06691,  -19.11469,  29.7742260331681, 28.1474498,
 2000-Oct-09 00:00, , ,   306.06303,  -19.11588,  29.7905286419472, 28.3056541,
 2000-Oct-10 00:00, , ,   306.05971,  -19.11693,  29.8069202320226, 28.4555942,
 2000-Oct-11 00:00, , ,   306.05695,  -19.11786,  29.8233960492091, 28.5973367,
 2000-Oct-12 00:00, , ,   306.05477,  -19.11866,  29.8399513799413, 28.7309548,
 2000-Oct-13 00:00, , ,   306.05314,  -19.11933,  29.8565815532687, 28.8565213,
 2000-Oct-14 00:00, , ,   306.05209,  -19.11986,  29.8732819373456, 28.9740966,
 2000-Oct-15 00:00, , ,   306.05160,  -19.12027,  29.8900479284830, 29.0837154,
 2000-Oct-16 00:00, , ,   306.05169,  -19.12055,  29.9068749322324, 29.1853732,
 2000-Oct-17 00:00, , ,   306.05235,  -19.12070,  29.9237583379385, 29.2790173,
 2000-Oct-18 00:00, , ,   306.05359,  -19.12072,  29.9406934899985, 29.3645449,
 2000-Oct-19 00:00, , ,   306.05540,  -19.12061,  29.9576756599149, 29.4418079,
 2000-Oct-20 00:00, , ,   306.05779,  -19.12036,  29.9747000228555, 29.5106228,
 2000-Oct-21 00:00, , ,   306.06075,  -19.11998,  29.9917616412350, 29.5707849,
 2000-Oct-22 00:00, , ,   306.06430,  -19.11947,  30.0088554565399, 29.6220828,
 2000-Oct-23 00:00, , ,   306.06843,  -19.11883,  30.0259762897687, 29.6643131,
 2000-Oct-24 00:00, , ,   306.07314,  -19.11806,  30.0431188758374, 29.6974017,
 2000-Oct-25 00:00, , ,   306.07844,  -19.11715,  30.0602778773293, 29.7211194,
 2000-Oct-26 00:00, , ,   306.08431,  -19.11611,  30.0774478396636, 29.7353461,
 2000-Oct-27 00:00, , ,   306.09077,  -19.11494,  30.0946232654715, 29.7400356,
 2000-Oct-28 00:00, , ,   306.09782,  -19.11363,  30.1117986455797, 29.7351925,
 2000-Oct-29 00:00, , ,   306.10544,  -19.11219,  30.1289684864191, 29.7208647,
 2000-Oct-30 00:00, , ,   306.11364,  -19.11062,  30.1461273320065, 29.6971324,
 2000-Oct-31 00:00, , ,   306.12243,  -19.10892,  30.1632697790807, 29.6640960,
 2000-Nov-01 00:00, , ,   306.13179,  -19.10708,  30.1803904856814, 29.6218659,
 2000-Nov-02 00:00, , ,   306.14172,  -19.10511,  30.1974841747226, 29.5705556,
 2000-Nov-03 00:00, , ,   306.15223,  -19.10301,  30.2145456346634, 29.5102783,
 2000-Nov-04 00:00, , ,   306.16330,  -19.10078,  30.2315697193077, 29.4411473,
 2000-Nov-05 00:00, , ,   306.17495,  -19.09842,  30.2485513483093, 29.3632779,
 2000-Nov-06 00:00, , ,   306.18716,  -19.09593,  30.2654855093327, 29.2767908,
 2000-Nov-07 00:00, , ,   306.19993,  -19.09331,  30.2823672621145, 29.1818153,
 2000-Nov-08 00:00, , ,   306.21326,  -19.09055,  30.2991917438656, 29.0784904,
 2000-Nov-09 00:00, , ,   306.22715,  -19.08767,  30.3159541745168, 28.9669628,
 2000-Nov-10 00:00, , ,   306.24158,  -19.08466,  30.3326498593000, 28.8473794,
 2000-Nov-11 00:00, , ,   306.25657,  -19.08153,  30.3492741853882, 28.7198744,
 2000-Nov-12 00:00, , ,   306.27210,  -19.07826,  30.3658226093763, 28.5845509,
 2000-Nov-13 00:00, , ,   306.28818,  -19.07487,  30.3822906151466, 28.4413842,
 2000-Nov-14 00:00, , ,   306.30479,  -19.07136,  30.3986736847339, 28.2904318,
 2000-Nov-15 00:00, , ,   306.32194,  -19.06771,  30.4149673127076, 28.1316394,
 2000-Nov-16 00:00, , ,   306.33963,  -19.06394,  30.4311669378202, 27.9648851,
 2000-Nov-17 00:00, , ,   306.35784,  -19.06005,  30.4472679191842, 27.7900190,
 2000-Nov-18 00:00, , ,   306.37658,  -19.05604,  30.4632655272444, 27.6068881,
 2000-Nov-19 00:00, , ,   306.39584,  -19.05190,  30.4791549482079, 27.4153567,
 2000-Nov-20 00:00, , ,   306.41562,  -19.04764,  30.4949312986761, 27.2153211,
 2000-Nov-21 00:00, , ,   306.43592,  -19.04325,  30.5105896465011, 27.0067170,
 2000-Nov-22 00:00, , ,   306.45673,  -19.03875,  30.5261250346165, 26.7895227,
 2000-Nov-23 00:00, , ,   306.47805,  -19.03413,  30.5415325057160, 26.5637589,
 2000-Nov-24 00:00, , ,   306.49987,  -19.02938,  30.5568071264471, 26.3294874,
 2000-Nov-25 00:00, , ,   306.52219,  -19.02452,  30.5719440100605, 26.0868071,
 2000-Nov-26 00:00, , ,   306.54500,  -19.01954,  30.5869383364475, 25.8358487,
 2000-Nov-27 00:00, , ,   306.56829,  -19.01445,  30.6017853685323, 25.5767678,
 2000-Nov-28 00:00, , ,   306.59206,  -19.00924,  30.6164804643146, 25.3097368,
 2000-Nov-29 00:00, , ,   306.61631,  -19.00391,  30.6310190844540, 25.0349376,
 2000-Nov-30 00:00, , ,   306.64103,  -18.99848,  30.6453967959867, 24.7525558,
 2000-Dec-01 00:00, , ,   306.66621,  -18.99293,  30.6596092733109, 24.4627773,
 2000-Dec-02 00:00, , ,   306.69184,  -18.98727,  30.6736522978363, 24.1657868,
 2000-Dec-03 00:00, , ,   306.71792,  -18.98150,  30.6875217634285, 23.8617928,
 2000-Dec-04 00:00, , ,   306.74444,  -18.97562,  30.7012136743874, 23.5509580,
 2000-Dec-05 00:00, , ,   306.77140,  -18.96964,  30.7147241320769, 23.2334691,
 2000-Dec-06 00:00, , ,   306.79878,  -18.96355,  30.7280493506387, 22.9095254,
 2000-Dec-07 00:00, , ,   306.82659,  -18.95736,  30.7411856611029, 22.5793318,
 2000-Dec-08 00:00, , ,   306.85480,  -18.95107,  30.7541295133015, 22.2430933,
 2000-Dec-09 00:00, , ,   306.88343,  -18.94467,  30.7668774725294, 21.9010022,
 2000-Dec-10 00:00, , ,   306.91245,  -18.93818,  30.7794262069971, 21.5532188,
 2000-Dec-11 00:00, , ,   306.94187,  -18.93159,  30.7917724630303, 21.1998497,
 2000-Dec-12 00:00, , ,   306.97167,  -18.92490,  30.8039130282768, 20.8409294,
 2000-Dec-13 00:00, , ,   307.00186,  -18.91811,  30.8158446884675, 20.4764178,
 2000-Dec-14 00:00, , ,   307.03241,  -18.91123,  30.8275641879734, 20.1062163,
 2000-Dec-15 00:00, , ,   307.06334,  -18.90426,  30.8390682049871, 19.7302004,
 2000-Dec-16 00:00, , ,   307.09462,  -18.89720,  30.8503533473457, 19.3482566,
 2000-Dec-17 00:00, , ,   307.12626,  -18.89005,  30.8614161675689, 18.9603105,
 2000-Dec-18 00:00, , ,   307.15824,  -18.88281,  30.8722531901649, 18.5663407,
 2000-Dec-19 00:00, , ,   307.19056,  -18.87548,  30.8828609430646, 18.1663798,
 2000-Dec-20 00:00, , ,   307.22322,  -18.86806,  30.8932359872452, 17.7605081,
 2000-Dec-21 00:00, , ,   307.25620,  -18.86057,  30.9033749417840, 17.3488451,
 2000-Dec-22 00:00, , ,   307.28949,  -18.85299,  30.9132745039981, 16.9315411,
 2000-Dec-23 00:00, , ,   307.32309,  -18.84533,  30.9229314744333, 16.5088098,
 2000-Dec-24 00:00, , ,   307.35700,  -18.83759,  30.9323427709230, 16.0808217,
 2000-Dec-25 00:00, , ,   307.39119,  -18.82977,  30.9415054134800, 15.6477796,
 2000-Dec-26 00:00, , ,   307.42567,  -18.82188,  30.9504165468856, 15.2099057,
 2000-Dec-27 00:00, , ,   307.46042,  -18.81392,  30.9590734465936, 14.7674296,
 2000-Dec-28 00:00, , ,   307.49543,  -18.80588,  30.9674735219268, 14.3205847,
 2000-Dec-29 00:00, , ,   307.53070,  -18.79778,  30.9756143172494, 13.8696049,
 2000-Dec-30 00:00, , ,   307.56622,  -18.78961,  30.9834935116854, 13.4147227,
 2000-Dec-31 00:00, , ,   307.60197,  -18.78137,  30.9911089181414, 12.9561688,
 2001-Jan-01 00:00, , ,   307.63795,  -18.77307,  30.9984584824106, 12.4941730,
 2001-Jan-02 00:00, , ,   307.67415,  -18.76470,  31.0055402829139, 12.0289650,
 2001-Jan-03 00:00, , ,   307.71056,  -18.75628,  31.0123525311844, 11.5607761,
 2001-Jan-04 00:00, , ,   307.74718,  -18.74780,  31.0188935724876, 11.0898378,
 2001-Jan-05 00:00, , ,   307.78398,  -18.73927,  31.0251618850052, 10.6163776,
 2001-Jan-06 00:00, , ,   307.82097,  -18.73068,  31.0311560748761, 10.1406088,
 2001-Jan-07 00:00, , ,   307.85813,  -18.72204,  31.0368748634786,  9.6627140,
 2001-Jan-08 00:00, , ,   307.89546,  -18.71334,  31.0423170634796,  9.1828230,
 2001-Jan-09 00:00, , ,   307.93294,  -18.70461,  31.0474815425365,  8.7009938,
